TYVAK-182A              
1 48271U 21034D   26068.71131789  .00007163  00000+0  50673-3 0  9991
2 48271  97.5843 129.3711 0004862 316.5650  43.5193 15.05150420264864
STARLINK-35048          
1 65286U 25184P   26068.71177971  .00001153  00000+0  84131-4 0  9999
2 65286  97.6025 122.6743 0000438 118.8097 241.3173 15.05648721 31253
